{
"type": "FeatureCollection",
"name": "route",
"crs": { "type": "name", "properties": { "name": "urn:ogc:def:crs:OGC:1.3:CRS84" } },
"features": [
{ "type": "Feature", "properties": { "name": "A* route (coarse-to-fine)" }, "geometry": { "type": "LineString", "coordinates": [ [ 108.286762322734518, 16.19489400635636 ], [ 108.665824342059764, 16.356559096412553 ], [ 108.890403163089644, 16.356559096412553 ], [ 109.114981984119524, 16.140951015372117 ], [ 109.339560805149404, 15.925107866557843 ], [ 109.564139626179283, 15.709032460154004 ], [ 109.788718447209163, 15.492727622574233 ], [ 110.013297268239043, 15.276196196305845 ], [ 110.237876089268923, 15.05944103975156 ], [ 110.462454910298803, 15.05944103975156 ], [ 110.687033731328683, 14.842465027068576 ], [ 110.911612552358577, 14.842465027068576 ], [ 111.136191373388442, 14.6252710480051 ], [ 111.360770194418322, 14.6252710480051 ], [ 111.585349015448202, 14.407862007734266 ], [ 111.809927836478096, 14.407862007734266 ], [ 112.034506657507961, 14.407862007734266 ], [ 112.259085478537841, 14.190240826685521 ], [ 112.483664299567735, 14.190240826685521 ], [ 112.708243120597615, 13.97241044037345 ], [ 112.932821941627481, 13.97241044037345 ], [ 113.15740076265736, 13.754373799224094 ], [ 113.381979583687254, 13.754373799224094 ], [ 113.606558404717134, 13.53613386839878 ], [ 113.831137225747014, 13.53613386839878 ], [ 114.055716046776894, 13.31769362761545 ], [ 114.280294867806774, 13.31769362761545 ], [ 114.504873688836653, 13.099056070967539 ], [ 114.729452509866533, 13.099056070967539 ], [ 114.954031330896427, 13.099056070967539 ], [ 115.178610151926307, 13.099056070967539 ], [ 115.403188972956158, 13.099056070967539 ], [ 115.627767793986052, 13.099056070967539 ], [ 115.852346615015932, 13.099056070967539 ], [ 116.076925436045812, 12.880224206740433 ], [ 116.301504257075692, 12.661201057225501 ], [ 116.526083078105586, 12.441989658531737 ], [ 116.750661899135466, 12.222593060395054 ], [ 116.975240720165345, 12.003014325985223 ], [ 117.199819541195211, 12.003014325985223 ], [ 117.424398362225091, 12.003014325985223 ], [ 117.648977183254971, 12.003014325985223 ], [ 117.87355600428485, 12.003014325985223 ], [ 118.098134825314744, 12.003014325985223 ], [ 118.322713646344624, 12.003014325985223 ], [ 118.547292467374504, 12.003014325985223 ], [ 118.771871288404384, 12.003014325985223 ], [ 118.996450109434249, 12.003014325985223 ], [ 119.221028930464129, 12.003014325985223 ], [ 119.445607751494009, 12.003014325985223 ], [ 119.670186572523903, 12.003014325985223 ], [ 119.894765393553783, 11.783256531710503 ], [ 120.119344214583663, 11.563322767020001 ], [ 120.343923035613543, 11.343216134203745 ], [ 120.568501856643437, 11.122939748190555 ], [ 120.793080677673288, 10.902496736343695 ], [ 121.017659498703168, 10.681890238254352 ], [ 121.242238319733062, 10.461123405532994 ], [ 121.466817140762942, 10.240199401598581 ], [ 121.466817140762942, 10.019121401465737 ], [ 121.691395961792821, 9.797892591529838 ], [ 121.691395961792821, 9.576516169350107 ], [ 121.915974782822701, 9.354995343430728 ], [ 122.140553603852595, 9.133333333 ], [ 122.365132424882475, 8.911533367787582 ], [ 122.589711245912355, 8.689598687799876 ], [ 122.81429006694222, 8.689598687799876 ], [ 123.0388688879721, 8.689598687799876 ], [ 123.26344770900198, 8.911533367787582 ], [ 123.48802653003186, 9.133333333 ], [ 123.6333333, 9.133333333 ] ] } }
]
}
